#dP2024  4  9  0  0  0.00000000      97 __u+U IGS20 FIT  IAC
## 2309 172800.00000000   900.00000000 60409 0.0000000000000
+  119   C06C07C08C09C10C11C12C13C14C16C19C20C21C22C23C24C25
+        C26C27C28C29C30C32C33C34C35C36C37C38C39C40C41C42C43
+        C44C45C46E02E03E04E05E07E08E09E10E11E12E13E14E15E19
+        E21E24E25E26E27E30E31E33E34E36G01G02G03G04G05G06G07
+        G08G09G10G11G12G13G14G15G16G17G18G19G20G21G22G23G24
+        G25G26G27G28G29G30G31G32J02J03J04R01R02R03R04R05R07
+        R08R09R11R12R13R14R15R16R17R18R19R20R21R22R24R25R26
++         7  7  7  7  7  7  7  7  7  7  5  5  5  5  6  6  6
++         5  5  5  5  5  6  6  6  5  6  5  6  6  6  5  6  6
++         6  5  6  4  4  4  4  4  4  4  4  4  4  4  4  4  4
++         4  4  4  4  4  4  4  4  4  4  4  3  3  3  3  3  3
++         3  3  3  3  3  3  3  3  3  3  3  4  3  3  3  3  3
++         3  3  3  3  3  3  3  4 11 11 11  8  7  7  7  7  6
++         7  6  6  6  7  6  7  6  7  6  7  8  6  6  7  7  8
%c M  cc GPS ccc cccc cccc cccc cccc ccccc ccccc ccccc ccccc
%c cc cc ccc ccc cccc cccc cccc cccc ccccc ccccc ccccc ccccc
%f  1.2500000  1.025000000  0.00000000000  0.000000000000000
%f  0.0000000  0.000000000  0.00000000000  0.000000000000000
%i    0    0    0    0      0      0      0      0         0
%i    0    0    0    0      0      0      0      0         0
/* INFORMATION & ANALYSIS CENTER (IAC)            FINAL DATA
/* S/V CLOCKS ARE ALIGNED TO GNSS TIME                      
/* G:C1WC2W R:C1PC2P E:C1XC5X C:C2IC6I J:C1CC2S             
/* PCV:IGS20_2290 OL/AL:FES2004  NONE     YN ORB:CoN CLK:CoN
*  2024 04 09  6  0  0.00000000
PC06    -16.278446  35281.232590 -22821.456266    332.762551
PC07 -14449.345279  26981.747266  29006.849223   -837.480187
PC08 -17357.413410  37911.958396  -6944.940153     -9.055435
PC09   3945.442032  37640.517445 -17436.320292   -736.884254
PC10  -4631.763970  27967.519318  31459.228481      9.031110
PC11  11568.154667  22309.498975  12202.133884    502.793067
PC12  -6179.502145  14994.391995  22742.310072   -228.456144
PC13 -11264.805612  38373.473444 -13604.245267    430.065024
PC14   3614.920832  15284.787033 -23046.331148    600.826963
PC16  -4064.052785  31990.520000 -26687.500235   -447.142660
PC19 -13723.996067 -10900.977824  21736.620646   -915.149456
PC20   5420.650656 -17045.419777  21445.871706   -341.559632
PC21 -23114.370133  13360.116640  -8044.614637   -962.496143
PC22 -26151.292936   1866.311639   9512.440719    -45.172571
PC23  16079.074011   2896.882643  22625.286628   -775.554865
PC24  -5325.556022  27402.724219    377.770354    942.989928
PC25   8254.245054  20976.001830  16450.702276    370.271375
PC26 -14600.761654  18065.358432 -15508.703344   -274.654740
PC27  14149.050467  -8492.137844 -22524.846643    296.452841
PC28  22779.438116   6756.757874 -14632.277770    226.565853
PC29 -19088.381714 -19894.528177  -4336.182735    265.758247
PC30  -2622.334407 -19945.378968 -19361.285611    -52.609301
PC32  23068.259549 -13547.667932   8002.281794   -598.425474
PC33  13768.913492  10842.448398 -21714.304156   -968.960596
PC34   4149.235010  20488.298214  18459.175598    408.287924
PC35 -23126.978146  -6092.623103  14396.279844    391.341736
PC36  -7624.872234 -21319.851045 -16288.256868     45.619963
PC37  15090.026787 -17423.548889  15723.049417   -955.524980
PC38 -20366.979068  36984.794288    968.974101    147.890885
PC39  -7095.537712  28331.286952 -30262.401218     -7.907772
PC40 -20181.297279  20214.866932  30906.171790    -64.626672
PC41  25931.883419  -1425.648652 -10182.093575   -921.389813
PC42  -7164.141177  17214.590144 -20702.597735   -443.661026
PC43  18485.645802  20231.596700   5182.872181     67.305393
PC44 -14071.062587   8951.017055  22360.882593    438.313629
PC45 -15959.833347  -2881.607345 -22714.448401    -79.428351
PC46   4844.483583 -27436.094289  -1199.293700   -138.491621
PE02 -21859.047309   2176.624135 -19856.811853    117.989813
PE03 -28860.723572  -5969.646734  -2668.882226   -105.967101
PE04  21067.632970  -8120.703602  19157.401751   -369.284778
PE05 -19602.271735 -16290.202450  15057.596614   4736.863263
PE07  -1595.567960  17059.534216 -24125.528237   -113.546786
PE08 -21637.264765   7501.666324 -18739.752338   -252.127213
PE09   1715.073574 -16897.458124  24249.605952   -400.596508
PE10   6194.989170 -22497.666232 -18220.374502   -615.737125
PE11   -853.484300 -28010.821584  -9575.621922   3065.931551
PE12  11731.166536 -14291.856521 -23126.012581   -986.004387
PE13    477.328085  27785.801430  10172.366234    -20.926309
PE14  23570.880414  -9904.500820 -19314.529743      1.393072
PE15 -11938.227313  13682.164232  23376.677030    -96.035738
PE19  28626.440356   7505.367190    675.098385   -277.139641
PE21   8707.122293  14777.104834  24117.812069   -588.300385
PE24  10361.473238 -23826.581069 -14183.884517   -697.419031
PE25  -8346.313450 -15079.926072 -24065.511928      3.126165
PE26  12736.029918  25055.589264  -9268.531106    420.566687
PE27 -10058.926249  23809.164461  14428.562890   -319.789031
PE30 -22791.235216  18510.827405  -3817.631694   -180.091119
PE31  22659.790943 -18691.553232   3645.916729    -20.363854
PE33  17164.450611   8795.122719 -22452.466954     10.170278
PE34 -17177.961520  -8184.273823  22669.145092   -104.648825
PE36 -12400.901257 -25425.429311   8744.861568   -210.833198
PG01 -12295.075776   8616.216072  21520.225990    178.801058
PG02 -16563.124028  -2527.011768  21154.856958   -456.462270
PG03 -21050.601090   9429.693222  12910.787105    300.426052
PG04 -25013.940223   -540.574980  -9095.149871    334.560677
PG05  15961.432882   3669.348659 -21101.967596   -168.471492
PG06   5060.637528  25845.092110   2991.452615    330.426520
PG07  -7998.452094  17526.048826 -17570.477064   -103.228501
PG08 -26120.036158  -5959.669818   -582.154138    110.620226
PG09 -16456.380684   9723.757438 -18542.534865    153.892655
PG10   6736.484641 -21084.844052  14643.724538     -6.873385
PG11  11892.635471  21814.224176  -9434.624077   -631.292293
PG12  21610.816032  -6975.039499  13442.569864   -494.912843
PG13  21608.785039  14000.689160  -7191.742460    641.215225
PG14 -10431.339443  21633.076805  11146.082043    371.719036
PG15  26458.506985   3271.727878  -1167.393410    146.481758
PG16 -12628.981285  -9182.672370 -21860.466883   -321.222336
PG17  -3410.279093  14868.308520  22158.746782    711.249495
PG18   7422.513121 -18346.452502 -17605.769366   -591.220608
PG19   7481.810497  16728.770212  19174.736338    465.644190
PG20   8109.826046  14399.715053 -20761.478899    380.851331
PG21 -17516.536815  -8825.471338  18804.633483    127.973571
PG22  -4105.346252  19903.868518  17674.954835      3.244649
PG23  15896.893226 -20884.201604   3352.470061    196.585218
PG24  17278.003860   4963.914127  19262.265803   -457.175508
PG25  20179.206192 -16045.143402   5432.628449    493.343350
PG26  -3207.597396 -18328.667800 -18971.121056    169.081867
PG27 -20488.628158 -13106.814842 -11454.724714    -17.498009
PG28  -4286.101457 -25621.883737   5526.187865   -196.140024
PG29  18966.275958  -6389.111027 -17568.580585   -602.446807
PG30   -432.340137  24505.825152  -9746.757535   -407.897058
PG31 -10074.183061 -23848.960605  -5101.415722   -228.031789
PG32   -932.843921 -15729.575504  21614.559720   -617.844272
PJ02 -29742.454534  29889.912468   7487.821593     -3.845695
PJ03 -25873.483433  23679.386850  28502.468653     -0.086020
PJ04 -33188.546133  22134.126459  -8562.369826     50.495958
PR01 -15231.186366  -6747.018881  19318.213087     81.970848
PR02 -25022.848021    859.787456   5095.313766    -22.699703
PR03 -20732.053221   8644.548952 -12086.941679     97.900102
PR04  -5321.168068  11116.997982 -22298.254889    231.221334
PR05  12950.262388   7908.561459 -20479.528988    129.694145
PR07  20032.234506  -8957.041992  13012.816087     79.816890
PR08   4873.139196 -11299.488073  22405.172514    -75.024941
PR09  12583.245223  -2554.047322  22071.431118    179.993180
PR11   7397.665639 -24106.284675  -3905.492669     28.543265
PR12  -4047.617949 -15523.755094 -19805.421993     38.779368
PR13 -11595.904518   -257.067439 -22734.709800    -46.117788
PR14 -13239.484089  18343.189120 -11757.136370     26.350030
PR15  -6713.561691  23990.917297   5480.713348     80.651099
PR16   3877.640192  15648.978968  19761.213295     24.661450
PR17  -7997.738161   6993.863366  23194.896661     76.380180
PR18   4331.393511  18518.574708  16979.570593    136.263327
PR19  13178.513897  21525.853872   3678.823997   -272.414911
PR20  16400.804372  10690.417874 -16319.740029   -110.975999
PR21   8008.996178  -6850.352364 -23231.877901    -91.276148
PR22  -4486.542137 -19357.296600 -15981.536178    115.570133
PR24 -17007.946365  -9316.546257  16579.096484    -51.104179
PR25   8411.625358  -6993.472454 -23040.001999    -27.999778
PR26   6100.248791 -11341.950852  22048.630867    -25.890499
EOF
